{
    "links": {
        "self": "http://www.neowsapp.com/rest/v1/neo/3360538?api_key=iIulBulltgU6a56xZRHN4H3l9WmuAYTsLGpBGhQ2"
    },
    "id": "3360538",
    "neo_reference_id": "3360538",
    "name": "(2006 WS29)",
    "designation": "2006 WS29",
    "nasa_jpl_url": "http://ssd.jpl.nasa.gov/sbdb.cgi?sstr=3360538",
    "absolute_magnitude_h": 25.0,
    "estimated_diameter": {
        "kilometers": {
            "estimated_diameter_min": 0.02658,
            "estimated_diameter_max": 0.0594346868
        },
        "meters": {
            "estimated_diameter_min": 26.58,
            "estimated_diameter_max": 59.4346868419
        },
        "miles": {
            "estimated_diameter_min": 0.0165160412,
            "estimated_diameter_max": 0.0369309908
        },
        "feet": {
            "estimated_diameter_min": 87.2047272,
            "estimated_diameter_max": 194.9956979785
        }
    },
    "is_potentially_hazardous_asteroid": false,
    "close_approach_data": [
        {
            "close_approach_date": "2006-12-02",
            "close_approach_date_full": "2006-Dec-02 03:09",
            "epoch_date_close_approach": 1165028940000,
            "relative_velocity": {
                "kilometers_per_second": "12.6812098827",
                "kilometers_per_hour": "45652.3555776358",
                "miles_per_hour": "28366.5983865593"
            },
            "miss_distance": {
                "astronomical": "0.0437615007",
                "lunar": "17.0232237723",
                "kilometers": "6546627.292723509",
                "miles": "4067885.5693380642"
            },
            "orbiting_body": "Earth"
        },
        {
            "close_approach_date": "2007-04-09",
            "close_approach_date_full": "2007-Apr-09 21:43",
            "epoch_date_close_approach": 1176154980000,
            "relative_velocity": {
                "kilometers_per_second": "7.1355324381",
                "kilometers_per_hour": "25687.9167770407",
                "miles_per_hour": "15961.4725107117"
            },
            "miss_distance": {
                "astronomical": "0.4705077937",
                "lunar": "183.0275317493",
                "kilometers": "70386963.755919419",
                "miles": "43736431.1926652222"
            },
            "orbiting_body": "Earth"
        }
    ],
    "orbital_data": {
        "orbit_id": "9",
        "orbit_determination_date": "2017-04-06 09:07:32",
        "first_observation_date": "2006-11-22",
        "last_observation_date": "2006-12-02",
        "data_arc_in_days": 10,
        "observations_used": 28,
        "orbit_uncertainty": "8",
        "minimum_orbit_intersection": ".0418029",
        "jupiter_tisserand_invariant": "4.106",
        "epoch_osculation": "2454064.5",
        "eccentricity": ".4570981050205059",
        "semi_major_axis": "1.66054376238733",
        "inclination": "14.52525538899571",
        "ascending_node_longitude": "63.87603362090268",
        "orbital_period": "781.5808596020051",
        "perihelion_distance": ".9015123552964602",
        "perihelion_argument": "56.79101687780372",
        "aphelion_distance": "2.4195751694782",
        "perihelion_time": "2454110.680734473847",
        "mean_anomaly": "338.72892586053",
        "mean_motion": ".4606049336767515",
        "equinox": "J2000",
        "orbit_class": {
            "orbit_class_type": "APO",
            "orbit_class_description": "Near-Earth asteroid orbits which cross the Earth’s orbit similar to that of 1862 Apollo",
            "orbit_class_range": "a (semi-major axis) > 1.0 AU; q (perihelion) < 1.017 AU"
        }
    },
    "is_sentry_object": false
}